OBJECT_NAME,OBJECT_ID,EPOCH,MEAN_MOTION,ECCENTRICITY,INCLINATION,RA_OF_ASC_NODE,ARG_OF_PERICENTER,MEAN_ANOMALY,EPHEMERIS_TYPE,CLASSIFICATION_TYPE,NORAD_CAT_ID,ELEMENT_SET_NO,REV_AT_EPOCH,BSTAR,MEAN_MOTION_DOT,MEAN_MOTION_DDOT
SIRION PATHFINDER-2,2018-099B,2026-06-14T01:50:11.816160,15.14524392,.00074313,97.4257,214.2077,317.9791,42.0871,0,U,43759,999,41215,.28364204E-3,.5164E-4,0
CORVUS BC4,2018-099K,2026-06-14T01:53:34.987488,15.12472471,.00086003,97.4066,208.1499,23.1106,337.0510,0,U,43767,999,41193,.27274487E-3,.4685E-4,0
M2 PATHFINDER,2020-037E,2026-06-14T01:18:12.266496,15.04666111,.00122667,97.8152,356.2511,155.7266,204.4540,0,U,45727,999,32502,.16137697E-3,.2208E-4,0
NETSAT-4,2020-068U,2026-06-14T00:19:37.061760,15.43769730,.00042247,97.8597,172.9993,352.2607,7.8574,0,U,46504,999,31528,.40137915E-3,.1808E-3,0
NETSAT-3,2020-068V,2026-06-14T06:38:46.674240,15.42587550,.00046216,97.8646,171.5038,12.4037,347.7322,0,U,46505,999,31523,.42040516E-3,.18205E-3,0
NETSAT-1,2020-068W,2026-06-14T06:23:38.669856,15.34582138,.00053591,97.8740,165.8580,40.9445,319.2198,0,U,46506,999,31485,.376161E-3,.12528E-3,0
NETSAT-2,2020-068X,2026-06-13T23:50:21.205536,15.45873896,.00038756,97.8610,172.8604,36.0502,324.1006,0,U,46507,999,31524,.50152746E-3,.24311E-3,0
GREENCUBE (IO-117),2022-080E,2026-06-13T07:02:28.697280,6.42583230,.00089108,70.1444,299.5995,290.4576,69.5127,0,U,53109,999,9181,0,-.3E-7,0
SITRO-AIS 5 (KATYS),2023-091L,2026-06-14T06:09:36.094464,15.29397545,.001277,97.5067,229.1279,112.5184,247.7409,0,U,57176,999,16389,.45423624E-3,.12911E-3,0
SITRO-AIS 6 (CHIRKIN),2023-091AC,2026-06-14T05:29:33.866016,15.25885612,.00131108,97.5075,228.2347,115.5070,244.7525,0,U,57192,999,16383,.39566336E-3,.10093E-3,0
SITRO-AIS 8 (ANOKHIN),2023-091AD,2026-06-14T06:41:28.755456,15.32065444,.00118209,97.5064,230.7270,108.8428,251.4096,0,U,57193,999,16400,.46308593E-3,.14298E-3,0
SITRO-AIS 7 (FARTUSHNIY),2023-091AE,2026-06-14T05:33:13.798944,15.25574339,.00129544,97.5073,228.0638,116.3953,243.8616,0,U,57194,999,16382,.38854633E-3,.9817E-4,0
SITRO-AIS 10 (BURDAEV),2023-091AK,2026-06-14T06:10:49.916352,15.38514136,.00076686,97.5089,235.7294,88.7601,271.4522,0,U,57199,999,16431,.51326246E-3,.19468E-3,0
SITRO-AIS 9 (SHCHUKIN),2023-091AM,2026-06-14T06:47:30.407712,15.38026195,.00079351,97.5087,235.4878,88.9468,271.2686,0,U,57201,999,16430,.51885821E-3,.19372E-3,0
SITRO-AIS 12 (SMIRENNIY),2023-091AQ,2026-06-14T06:34:47.739360,15.38317475,.00074715,97.5100,235.9442,84.0662,276.1434,0,U,57204,999,16432,.5240285E-3,.19751E-3,0
SITRO-AIS 11 (SHEFFER),2023-091AU,2026-06-14T03:47:58.913664,15.38736565,.00073591,97.5098,236.0703,84.2329,275.9755,0,U,57208,999,16432,.55385906E-3,.2117E-3,0
SITRO-AIS 25,2024-039R,2026-06-14T07:03:40.400640,14.93501205,.01438429,95.3912,233.1044,338.9740,20.5607,0,U,59066,999,12429,.19069266E-3,.2424E-4,0
SITRO-AIS 26,2024-039S,2026-06-14T05:28:35.392224,14.93297126,.01441875,95.3914,232.9573,339.7817,19.7732,0,U,59067,999,12427,.19020585E-3,.2407E-4,0
SITRO-AIS 27,2024-039T,2026-06-14T06:23:24.575424,14.93716799,.01431357,95.3917,233.2537,338.2642,21.2546,0,U,59068,999,12430,.25268477E-3,.3237E-4,0
SITRO-AIS 28,2024-039U,2026-06-14T07:27:28.816416,14.93749106,.01430677,95.3915,233.3314,337.9200,21.5900,0,U,59071,999,12431,.21694042E-3,.2776E-4,0
GRBBETA,2024-128C,2026-06-13T21:38:19.161024,15.06620638,.0041064,61.9894,227.7936,133.9799,226.4693,0,U,60237,999,10577,.24477E-3,.3495E-4,0
OOV-CUBE (TUBSAT-30),2024-128F,2026-06-13T22:16:30.375840,15.02762484,.00450363,61.9948,236.9373,132.9755,227.5126,0,U,60240,999,10562,.17165252E-3,.2141E-4,0
ROBUSTA-3A (MEDITERRANEE),2024-128J,2026-06-14T06:58:19.517088,15.11650187,.00416684,61.9856,218.4883,127.6006,232.8884,0,U,60243,999,10598,.37011808E-3,.6233E-4,0
LASARSAT,2024-247Q,2026-06-13T14:48:20.082240,15.46168743,.0008375,44.9751,282.2745,311.5212,48.4959,0,U,62391,999,8276,.65515E-3,.32689E-3,0
CROCUBE,2024-247T,2026-06-13T17:57:18.051840,15.48041306,.00082044,44.9723,278.9259,315.9203,44.1032,0,U,62394,999,8281,.72514081E-3,.38699E-3,0
FORESAIL-1 PRIME,2025-276DS,2026-06-14T03:55:15.060864,15.18676939,.00039127,97.4203,238.4891,109.6955,250.4701,0,U,66778,999,2994,.24279032E-3,.4967E-4,0
KNACKSAT-2,1998-067XZ,2026-06-13T16:46:10.211520,15.59677165,.00096113,51.6303,312.0209,199.6131,160.4494,0,U,67683,999,1973,.57858406E-3,.46958E-3,0
