SIRION PATHFINDER-2     
1 43759U 18099B   26165.07652565  .00005164  00000+0  28364-3 0  9992
2 43759  97.4257 214.2077 0007431 317.9791  42.0871 15.14524392412150
CORVUS BC4              
1 43767U 18099K   26165.07887717  .00004685  00000+0  27274-3 0  9996
2 43767  97.4066 208.1499 0008600  23.1106 337.0510 15.12472471411932
M2 PATHFINDER           
1 45727U 20037E   26165.05430864  .00002208  00000+0  16138-3 0  9990
2 45727  97.8152 356.2511 0012266 155.7266 204.4540 15.04666111325023
NETSAT-4                
1 46504U 20068U   26165.01362340  .00018080  00000+0  40138-3 0  9999
2 46504  97.8597 172.9993 0004224 352.2607   7.8574 15.43769730315288
NETSAT-3                
1 46505U 20068V   26165.27692910  .00018205  00000+0  42041-3 0  9991
2 46505  97.8646 171.5038 0004621  12.4037 347.7322 15.42587550315231
NETSAT-1                
1 46506U 20068W   26165.26641979  .00012528  00000+0  37616-3 0  9994
2 46506  97.8740 165.8580 0005359  40.9445 319.2198 15.34582138314853
NETSAT-2                
1 46507U 20068X   26164.99330099  .00024311  00000+0  50153-3 0  9996
2 46507  97.8610 172.8604 0003875  36.0502 324.1006 15.45873896315249
GREENCUBE (IO-117)      
1 53109U 22080E   26164.29338770 -.00000003  00000+0  00000+0 0  9990
2 53109  70.1444 299.5995 0008910 290.4576  69.5127  6.42583230 91811
SITRO-AIS 5 (KATYS)     
1 57176U 23091L   26165.25666776  .00012911  00000+0  45424-3 0  9991
2 57176  97.5067 229.1279 0012770 112.5184 247.7409 15.29397545163893
SITRO-AIS 6 (CHIRKIN)   
1 57192U 23091AC  26165.22886419  .00010093  00000+0  39566-3 0  9993
2 57192  97.5075 228.2347 0013110 115.5070 244.7525 15.25885612163835
SITRO-AIS 8 (ANOKHIN)   
1 57193U 23091AD  26165.27880504  .00014298  00000+0  46309-3 0  9992
2 57193  97.5064 230.7270 0011820 108.8428 251.4096 15.32065444164004
SITRO-AIS 7 (FARTUSHNIY)
1 57194U 23091AE  26165.23140971  .00009817  00000+0  38855-3 0  9994
2 57194  97.5073 228.0638 0012954 116.3953 243.8616 15.25574339163821
SITRO-AIS 10 (BURDAEV)  
1 57199U 23091AK  26165.25752218  .00019468  00000+0  51326-3 0  9995
2 57199  97.5089 235.7294 0007668  88.7601 271.4522 15.38514136164315
SITRO-AIS 9 (SHCHUKIN)  
1 57201U 23091AM  26165.28299083  .00019372  00000+0  51886-3 0  9993
2 57201  97.5087 235.4878 0007935  88.9468 271.2686 15.38026195164303
SITRO-AIS 12 (SMIRENNIY)
1 57204U 23091AQ  26165.27416365  .00019751  00000+0  52403-3 0  9996
2 57204  97.5100 235.9442 0007471  84.0662 276.1434 15.38317475164323
SITRO-AIS 11 (SHEFFER)  
1 57208U 23091AU  26165.15832076  .00021170  00000+0  55386-3 0  9999
2 57208  97.5098 236.0703 0007359  84.2329 275.9755 15.38736565164320
SITRO-AIS 25            
1 59066U 24039R   26165.29421760  .00002424  00000+0  19069-3 0  9994
2 59066  95.3912 233.1044 0143842 338.9740  20.5607 14.93501205124298
SITRO-AIS 26            
1 59067U 24039S   26165.22818741  .00002407  00000+0  19021-3 0  9996
2 59067  95.3914 232.9573 0144187 339.7817  19.7732 14.93297126124273
SITRO-AIS 27            
1 59068U 24039T   26165.26625666  .00003237  00000+0  25268-3 0  9995
2 59068  95.3917 233.2537 0143135 338.2642  21.2546 14.93716799124300
SITRO-AIS 28            
1 59071U 24039U   26165.31075019  .00002776  00000+0  21694-3 0  9992
2 59071  95.3915 233.3314 0143067 337.9200  21.5900 14.93749106124312
GRBBETA                 
1 60237U 24128C   26164.90161066  .00003495  00000+0  24477-3 0  9990
2 60237  61.9894 227.7936 0041064 133.9799 226.4693 15.06620638105778
OOV-CUBE (TUBSAT-30)    
1 60240U 24128F   26164.92812935  .00002141  00000+0  17165-3 0  9997
2 60240  61.9948 236.9373 0045036 132.9755 227.5126 15.02762484105622
ROBUSTA-3A (MEDITERRAN*)
1 60243U 24128J   26165.29050367  .00006233  00000+0  37012-3 0  9993
2 60243  61.9856 218.4883 0041668 127.6006 232.8884 15.11650187105986
LASARSAT                
1 62391U 24247Q   26164.61689910  .00032689  00000+0  65515-3 0  9991
2 62391  44.9751 282.2745 0008375 311.5212  48.4959 15.46168743 82768
CROCUBE                 
1 62394U 24247T   26164.74812560  .00038699  00000+0  72514-3 0  9991
2 62394  44.9723 278.9259 0008204 315.9203  44.1032 15.48041306 82819
FORESAIL-1 PRIME        
1 66778U 25276DS  26165.16336876  .00004967  00000+0  24279-3 0  9998
2 66778  97.4203 238.4891 0003912 109.6955 250.4701 15.18676939 29944
KNACKSAT-2              
1 67683U 98067XZ  26164.69872930  .00046958  00000+0  57858-3 0  9990
2 67683  51.6303 312.0209 0009611 199.6131 160.4494 15.59677165 19734
